*******************************************************************************
Ephemeris / WWW_USER Mon Jul 15 19:10:48 2024 Pasadena, USA      / Horizons    
*******************************************************************************
Target body name: (2018 RY7)                      {source: JPL#20}
Center body name: Earth (399)                     {source: DE441}
Center-site name: Gemini South Obs., Cerro Pachon
*******************************************************************************
Start time      : A.D. 2018-Nov-20 23:30:00.0000 UT      
Stop  time      : A.D. 2018-Nov-21 09:26:00.0000 UT      
Step-size       : 1 minutes
*******************************************************************************
Target pole/equ : undefined
Target radii    : undefined                                                    
Center geodetic : 289.2634, -30.2406227, 2.71233  {E-lon(deg),Lat(deg),Alt(km)}
Center cylindric: 289.2634,5517.21435,-3194.81213 {E-lon(deg),Dxy(km),Dz(km)}
Center pole/equ : ITRF93                          {East-longitude positive}
Center radii    : 6378.137, 6378.137, 6356.752 km {Equator_a, b, pole_c}       
Target primary  : Sun
Vis. interferer : MOON (R_eq= 1737.400) km        {source: DE441}
Rel. light bend : Sun                             {source: DE441}
Rel. lght bnd GM: 1.3271E+11 km^3/s^2                                          
Small-body perts: Yes                             {source: SB441-N16}
Atmos refraction: NO (AIRLESS)
RA format       : HMS
Time format     : CAL 
Calendar mode   : Mixed Julian/Gregorian
RTS-only print  : NO       
EOP file        : eop.240715.p241008                                           
EOP coverage    : DATA-BASED 1962-JAN-20 TO 2024-JUL-15. PREDICTS-> 2024-OCT-07
Units conversion: 1 au= 149597870.700 km, c= 299792.458 km/s, 1 day= 86400.0 s 
Table cut-offs 1: Elevation (-90.0deg=NO ),Airmass (>38.000=NO), Daylight (YES)
Table cut-offs 2: Solar elongation (  0.0,180.0=NO ),Local Hour Angle( 0.0=NO )
Table cut-offs 3: RA/DEC angular rate (     0.0=NO )                           
*******************************************************************************
Initial IAU76/J2000 heliocentric ecliptic osculating elements (au, days, deg.):
  EPOCH=  2458422.5 ! 2018-Oct-31.00 (TDB)         Residual RMS= .22459        
   EC= .1470549687381346   QR= .8667733479166969   TP= 2458516.8896767548      
   OM= 2.838668085760325   W=  136.9006026425241   IN= 13.35135890147074       
  Equivalent ICRF heliocentric cartesian coordinates (au, au/d):
   X= 8.791791513870114E-01  Y= 4.508422091141234E-01  Z= 3.244113040133835E-01
  VX=-1.085418916943652E-02 VY= 1.006005810562689E-02 VZ= 7.673980932675997E-03
Asteroid physical parameters (km, seconds, rotational period in hours):        
   GM= n.a.                RAD= n.a.               ROTPER= n.a.                
   H= 24.4                 G= .150                 B-V= n.a.                   
                           ALBEDO= n.a.            STYP= n.a.                  
*******************************************************************************
 Date__(UT)__HR:MN     R.A._________(ICRF)_________DEC
******************************************************
$$SOE
 2018-Nov-21 01:33  m  20 03 30.370204 +37 54 41.34124
 2018-Nov-21 01:34  m  20 03 30.304339 +37 54 41.74712
 2018-Nov-21 01:35  m  20 03 30.238531 +37 54 42.15285
 2018-Nov-21 01:36  m  20 03 30.172779 +37 54 42.55844
 2018-Nov-21 01:37  m  20 03 30.107084 +37 54 42.96389
 2018-Nov-21 01:38  m  20 03 30.041446 +37 54 43.36920
 2018-Nov-21 01:39  m  20 03 29.975865 +37 54 43.77438
 2018-Nov-21 01:40  m  20 03 29.910341 +37 54 44.17942
 2018-Nov-21 01:41  m  20 03 29.844874 +37 54 44.58432
 2018-Nov-21 01:42  m  20 03 29.779464 +37 54 44.98910
 2018-Nov-21 01:43  m  20 03 29.714111 +37 54 45.39374
 2018-Nov-21 01:44  m  20 03 29.648815 +37 54 45.79826
 2018-Nov-21 01:45  m  20 03 29.583577 +37 54 46.20265
 2018-Nov-21 01:46  m  20 03 29.518396 +37 54 46.60692
 2018-Nov-21 01:47  m  20 03 29.453272 +37 54 47.01107
 2018-Nov-21 01:48  m  20 03 29.388207 +37 54 47.41509
 2018-Nov-21 01:49  m  20 03 29.323198 +37 54 47.81900
 2018-Nov-21 01:50  m  20 03 29.258248 +37 54 48.22279
 2018-Nov-21 01:51  m  20 03 29.193355 +37 54 48.62646
 2018-Nov-21 01:52  m  20 03 29.128520 +37 54 49.03002
 2018-Nov-21 01:53  m  20 03 29.063742 +37 54 49.43347
 2018-Nov-21 01:54  m  20 03 28.999023 +37 54 49.83682
 2018-Nov-21 01:55  m  20 03 28.934361 +37 54 50.24005
 2018-Nov-21 01:56  m  20 03 28.869758 +37 54 50.64318
 2018-Nov-21 01:57  m  20 03 28.805213 +37 54 51.04620
 2018-Nov-21 01:58  m  20 03 28.740726 +37 54 51.44912
 2018-Nov-21 01:59  m  20 03 28.676297 +37 54 51.85194
 2018-Nov-21 02:00  m  20 03 28.611926 +37 54 52.25466
 2018-Nov-21 02:01  m  20 03 28.547614 +37 54 52.65729
 2018-Nov-21 02:02  m  20 03 28.483360 +37 54 53.05982
 2018-Nov-21 02:03  m  20 03 28.419164 +37 54 53.46225
 2018-Nov-21 02:04  m  20 03 28.355027 +37 54 53.86460
 2018-Nov-21 02:05  m  20 03 28.290948 +37 54 54.26686
 2018-Nov-21 02:06  m  20 03 28.226928 +37 54 54.66903
 2018-Nov-21 02:07  m  20 03 28.162966 +37 54 55.07111
 2018-Nov-21 02:08  m  20 03 28.099063 +37 54 55.47311
 2018-Nov-21 02:09  m  20 03 28.035219 +37 54 55.87503
 2018-Nov-21 02:10  m  20 03 27.971434 +37 54 56.27687
 2018-Nov-21 02:11  m  20 03 27.907707 +37 54 56.67863
 2018-Nov-21 02:12  m  20 03 27.844039 +37 54 57.08031
 2018-Nov-21 02:13  m  20 03 27.780430 +37 54 57.48192
 2018-Nov-21 02:14  m  20 03 27.716880 +37 54 57.88346
 2018-Nov-21 02:15  m  20 03 27.653388 +37 54 58.28493
 2018-Nov-21 02:16  m  20 03 27.589956 +37 54 58.68632
 2018-Nov-21 02:17  m  20 03 27.526583 +37 54 59.08766
 2018-Nov-21 02:18  m  20 03 27.463268 +37 54 59.48892
 2018-Nov-21 02:19  m  20 03 27.400013 +37 54 59.89012
 2018-Nov-21 02:20  m  20 03 27.336817 +37 55 00.29126
 2018-Nov-21 02:21  m  20 03 27.273680 +37 55 00.69235
 2018-Nov-21 02:22  m  20 03 27.210602 +37 55 01.09337
 2018-Nov-21 02:23  m  20 03 27.147583 +37 55 01.49434
 2018-Nov-21 02:24  m  20 03 27.084624 +37 55 01.89525
 2018-Nov-21 02:25  m  20 03 27.021724 +37 55 02.29611
 2018-Nov-21 02:26  m  20 03 26.958882 +37 55 02.69693
 2018-Nov-21 02:27  m  20 03 26.896101 +37 55 03.09769
 2018-Nov-21 02:28  m  20 03 26.833378 +37 55 03.49841
 2018-Nov-21 02:29  m  20 03 26.770715 +37 55 03.89908
 2018-Nov-21 02:30  m  20 03 26.708111 +37 55 04.29971
 2018-Nov-21 02:31  m  20 03 26.645567 +37 55 04.70030
 2018-Nov-21 02:32  m  20 03 26.583082 +37 55 05.10085
 2018-Nov-21 02:33  m  20 03 26.520656 +37 55 05.50137
 2018-Nov-21 02:34  m  20 03 26.458290 +37 55 05.90185
 2018-Nov-21 02:35  m  20 03 26.395983 +37 55 06.30229
 2018-Nov-21 02:36  m  20 03 26.333735 +37 55 06.70271
 2018-Nov-21 02:37  m  20 03 26.271547 +37 55 07.10309
 2018-Nov-21 02:38  m  20 03 26.209419 +37 55 07.50345
 2018-Nov-21 02:39  m  20 03 26.147350 +37 55 07.90378
 2018-Nov-21 02:40  m  20 03 26.085340 +37 55 08.30409
 2018-Nov-21 02:41  m  20 03 26.023390 +37 55 08.70437
 2018-Nov-21 02:42  m  20 03 25.961500 +37 55 09.10464
 2018-Nov-21 02:43  m  20 03 25.899669 +37 55 09.50489
 2018-Nov-21 02:44  m  20 03 25.837897 +37 55 09.90512
 2018-Nov-21 02:45  m  20 03 25.776185 +37 55 10.30533
 2018-Nov-21 02:46  m  20 03 25.714532 +37 55 10.70554
 2018-Nov-21 02:47  m  20 03 25.652939 +37 55 11.10573
 2018-Nov-21 02:48  m  20 03 25.591406 +37 55 11.50592
 2018-Nov-21 02:49  m  20 03 25.529931 +37 55 11.90610
 2018-Nov-21 02:50  m  20 03 25.468517 +37 55 12.30627
 2018-Nov-21 02:51  m  20 03 25.407162 +37 55 12.70644
 2018-Nov-21 02:52  m  20 03 25.345866 +37 55 13.10661
 2018-Nov-21 02:53  m  20 03 25.284630 +37 55 13.50678
 2018-Nov-21 02:54  m  20 03 25.223454 +37 55 13.90695
 2018-Nov-21 02:55  m  20 03 25.162336 +37 55 14.30713
 2018-Nov-21 02:56  m  20 03 25.101279 +37 55 14.70731
 2018-Nov-21 02:57  m  20 03 25.040280 +37 55 15.10750
 2018-Nov-21 02:58  m  20 03 24.979342 +37 55 15.50770
 2018-Nov-21 02:59  m  20 03 24.918462 +37 55 15.90792
 2018-Nov-21 03:00  m  20 03 24.857642 +37 55 16.30814
 2018-Nov-21 03:01  m  20 03 24.796882 +37 55 16.70839
 2018-Nov-21 03:02  m  20 03 24.736181 +37 55 17.10865
 2018-Nov-21 03:03  m  20 03 24.675539 +37 55 17.50893
 2018-Nov-21 03:04  m  20 03 24.614956 +37 55 17.90923
 2018-Nov-21 03:05  m  20 03 24.554433 +37 55 18.30955
 2018-Nov-21 03:06  m  20 03 24.493969 +37 55 18.70990
 2018-Nov-21 03:07  m  20 03 24.433565 +37 55 19.11028
 2018-Nov-21 03:08  m  20 03 24.373220 +37 55 19.51068
 2018-Nov-21 03:09  m  20 03 24.312933 +37 55 19.91112
 2018-Nov-21 03:10  m  20 03 24.252707 +37 55 20.31159
 2018-Nov-21 03:11  m  20 03 24.192539 +37 55 20.71209
 2018-Nov-21 03:12  m  20 03 24.132430 +37 55 21.11263
 2018-Nov-21 03:13  m  20 03 24.072381 +37 55 21.51321
 2018-Nov-21 03:14  m  20 03 24.012391 +37 55 21.91383
 2018-Nov-21 03:15  m  20 03 23.952460 +37 55 22.31449
 2018-Nov-21 03:16  m  20 03 23.892587 +37 55 22.71519
 2018-Nov-21 03:17  m  20 03 23.832774 +37 55 23.11594
 2018-Nov-21 03:18  m  20 03 23.773020 +37 55 23.51674
 2018-Nov-21 03:19  m  20 03 23.713325 +37 55 23.91759
 2018-Nov-21 03:20  m  20 03 23.653688 +37 55 24.31849
 2018-Nov-21 03:21  m  20 03 23.594111 +37 55 24.71944
 2018-Nov-21 03:22  m  20 03 23.534592 +37 55 25.12044
 2018-Nov-21 03:23  m  20 03 23.475132 +37 55 25.52151
 2018-Nov-21 03:24  m  20 03 23.415731 +37 55 25.92263
 2018-Nov-21 03:25  m  20 03 23.356389 +37 55 26.32381
 2018-Nov-21 03:26  m  20 03 23.297105 +37 55 26.72506
 2018-Nov-21 03:27  m  20 03 23.237880 +37 55 27.12637
 2018-Nov-21 03:28  m  20 03 23.178713 +37 55 27.52774
 2018-Nov-21 03:29  m  20 03 23.119605 +37 55 27.92919
 2018-Nov-21 03:30  m  20 03 23.060555 +37 55 28.33070
 2018-Nov-21 03:31  m  20 03 23.001564 +37 55 28.73228
 2018-Nov-21 03:32  m  20 03 22.942631 +37 55 29.13394
 2018-Nov-21 03:33  m  20 03 22.883757 +37 55 29.53568
 2018-Nov-21 03:34  m  20 03 22.824940 +37 55 29.93749
 2018-Nov-21 03:35  m  20 03 22.766182 +37 55 30.33938
